[{"OBJECT_NAME":"STARLINK-36840","OBJECT_ID":"2026-034A","EPOCH":"2026-03-03T14:00:03.000384","MEAN_MOTION":15.80848344,"ECCENTRICITY":9.72e-5,"INCLINATION":53.1586,"RA_OF_ASC_NODE":241.9607,"ARG_OF_PERICENTER":65.7163,"MEAN_ANOMALY":203.4246,"EPHEMERIS_TYPE":0,"CLASSIFICATION_TYPE":"U","NORAD_CAT_ID":67850,"ELEMENT_SET_NO":999,"REV_AT_EPOCH":293,"BSTAR":0.0004417994,"MEAN_MOTION_DOT":0.00087283,"MEAN_MOTION_DDOT":0},{"OBJECT_NAME":"STARLINK-36348","OBJECT_ID":"2026-034B","EPOCH":"2026-03-03T14:00:03.000384","MEAN_MOTION":15.80856764,"ECCENTRICITY":0.00012384,"INCLINATION":53.1587,"RA_OF_ASC_NODE":241.9511,"ARG_OF_PERICENTER":63.5919,"MEAN_ANOMALY":209.8172,"EPHEMERIS_TYPE":0,"CLASSIFICATION_TYPE":"U","NORAD_CAT_ID":67851,"ELEMENT_SET_NO":999,"REV_AT_EPOCH":288,"BSTAR":0.00036870334,"MEAN_MOTION_DOT":0.00072631,"MEAN_MOTION_DDOT":0},{"OBJECT_NAME":"STARLINK-36276","OBJECT_ID":"2026-034C","EPOCH":"2026-03-03T14:00:03.000384","MEAN_MOTION":15.80857532,"ECCENTRICITY":0.00014426,"INCLINATION":53.1585,"RA_OF_ASC_NODE":241.9422,"ARG_OF_PERICENTER":51.8863,"MEAN_ANOMALY":225.8171,"EPHEMERIS_TYPE":0,"CLASSIFICATION_TYPE":"U","NORAD_CAT_ID":67852,"ELEMENT_SET_NO":999,"REV_AT_EPOCH":288,"BSTAR":0.00019944174,"MEAN_MOTION_DOT":0.00038813,"MEAN_MOTION_DDOT":0},{"OBJECT_NAME":"STARLINK-36785","OBJECT_ID":"2026-034D","EPOCH":"2026-03-03T14:00:03.000384","MEAN_MOTION":15.80879955,"ECCENTRICITY":0.00014406,"INCLINATION":53.1587,"RA_OF_ASC_NODE":241.9334,"ARG_OF_PERICENTER":56.4625,"MEAN_ANOMALY":225.4891,"EPHEMERIS_TYPE":0,"CLASSIFICATION_TYPE":"U","NORAD_CAT_ID":67853,"ELEMENT_SET_NO":999,"REV_AT_EPOCH":288,"BSTAR":0.00011052978,"MEAN_MOTION_DOT":0.00021176,"MEAN_MOTION_DDOT":0},{"OBJECT_NAME":"STARLINK-36608","OBJECT_ID":"2026-034E","EPOCH":"2026-03-03T14:00:03.000384","MEAN_MOTION":15.80879471,"ECCENTRICITY":0.00014085,"INCLINATION":53.1587,"RA_OF_ASC_NODE":241.9246,"ARG_OF_PERICENTER":53.24,"MEAN_ANOMALY":232.981,"EPHEMERIS_TYPE":0,"CLASSIFICATION_TYPE":"U","NORAD_CAT_ID":67854,"ELEMENT_SET_NO":999,"REV_AT_EPOCH":288,"BSTAR":0.00014872675,"MEAN_MOTION_DOT":0.00028761,"MEAN_MOTION_DDOT":0},{"OBJECT_NAME":"STARLINK-36838","OBJECT_ID":"2026-034F","EPOCH":"2026-03-03T14:00:03.000384","MEAN_MOTION":15.8086806,"ECCENTRICITY":0.00013295,"INCLINATION":53.1587,"RA_OF_ASC_NODE":241.9151,"ARG_OF_PERICENTER":45.1196,"MEAN_ANOMALY":245.3863,"EPHEMERIS_TYPE":0,"CLASSIFICATION_TYPE":"U","NORAD_CAT_ID":67855,"ELEMENT_SET_NO":999,"REV_AT_EPOCH":288,"BSTAR":0.00019163347,"MEAN_MOTION_DOT":0.00037278,"MEAN_MOTION_DDOT":0},{"OBJECT_NAME":"STARLINK-36843","OBJECT_ID":"2026-034G","EPOCH":"2026-03-03T14:00:03.000384","MEAN_MOTION":15.8086149,"ECCENTRICITY":0.00010433,"INCLINATION":53.1586,"RA_OF_ASC_NODE":241.898,"ARG_OF_PERICENTER":88.5444,"MEAN_ANOMALY":210.4934,"EPHEMERIS_TYPE":0,"CLASSIFICATION_TYPE":"U","NORAD_CAT_ID":67856,"ELEMENT_SET_NO":999,"REV_AT_EPOCH":288,"BSTAR":0.00032820342,"MEAN_MOTION_DOT":0.00064528,"MEAN_MOTION_DDOT":0},{"OBJECT_NAME":"STARLINK-36828","OBJECT_ID":"2026-034H","EPOCH":"2026-03-03T14:00:03.000384","MEAN_MOTION":15.8083747,"ECCENTRICITY":0.00010187,"INCLINATION":53.1586,"RA_OF_ASC_NODE":241.9072,"ARG_OF_PERICENTER":63.7871,"MEAN_ANOMALY":230.988,"EPHEMERIS_TYPE":0,"CLASSIFICATION_TYPE":"U","NORAD_CAT_ID":67857,"ELEMENT_SET_NO":999,"REV_AT_EPOCH":288,"BSTAR":0.00052609521,"MEAN_MOTION_DOT":0.00104224,"MEAN_MOTION_DDOT":0},{"OBJECT_NAME":"STARLINK-36837","OBJECT_ID":"2026-034J","EPOCH":"2026-03-03T14:00:03.000384","MEAN_MOTION":15.80880919,"ECCENTRICITY":0.0001198,"INCLINATION":53.1588,"RA_OF_ASC_NODE":241.8882,"ARG_OF_PERICENTER":81.0814,"MEAN_ANOMALY":222.2326,"EPHEMERIS_TYPE":0,"CLASSIFICATION_TYPE":"U","NORAD_CAT_ID":67858,"ELEMENT_SET_NO":999,"REV_AT_EPOCH":288,"BSTAR":7.8025116e-5,"MEAN_MOTION_DOT":0.00014732,"MEAN_MOTION_DDOT":0},{"OBJECT_NAME":"STARLINK-36393","OBJECT_ID":"2026-034K","EPOCH":"2026-03-03T14:00:03.000384","MEAN_MOTION":15.80846612,"ECCENTRICITY":7.1e-5,"INCLINATION":53.1587,"RA_OF_ASC_NODE":241.8796,"ARG_OF_PERICENTER":65.2228,"MEAN_ANOMALY":242.3834,"EPHEMERIS_TYPE":0,"CLASSIFICATION_TYPE":"U","NORAD_CAT_ID":67859,"ELEMENT_SET_NO":999,"REV_AT_EPOCH":288,"BSTAR":0.00037577358,"MEAN_MOTION_DOT":0.00074013,"MEAN_MOTION_DDOT":0},{"OBJECT_NAME":"STARLINK-35873","OBJECT_ID":"2026-034L","EPOCH":"2026-03-03T14:00:03.000384","MEAN_MOTION":15.80842249,"ECCENTRICITY":7.655e-5,"INCLINATION":53.1587,"RA_OF_ASC_NODE":241.8709,"ARG_OF_PERICENTER":72.2276,"MEAN_ANOMALY":239.637,"EPHEMERIS_TYPE":0,"CLASSIFICATION_TYPE":"U","NORAD_CAT_ID":67860,"ELEMENT_SET_NO":999,"REV_AT_EPOCH":302,"BSTAR":0.00043702286,"MEAN_MOTION_DOT":0.00086298,"MEAN_MOTION_DDOT":0},{"OBJECT_NAME":"STARLINK-36325","OBJECT_ID":"2026-034M","EPOCH":"2026-03-03T14:00:03.000384","MEAN_MOTION":15.80882855,"ECCENTRICITY":0.00012331,"INCLINATION":53.1589,"RA_OF_ASC_NODE":241.8618,"ARG_OF_PERICENTER":89.9444,"MEAN_ANOMALY":226.1957,"EPHEMERIS_TYPE":0,"CLASSIFICATION_TYPE":"U","NORAD_CAT_ID":67861,"ELEMENT_SET_NO":999,"REV_AT_EPOCH":288,"BSTAR":3.4262468e-5,"MEAN_MOTION_DOT":6.071e-5,"MEAN_MOTION_DDOT":0},{"OBJECT_NAME":"STARLINK-36332","OBJECT_ID":"2026-034N","EPOCH":"2026-03-03T14:00:03.000384","MEAN_MOTION":15.80878131,"ECCENTRICITY":9.763e-5,"INCLINATION":53.1585,"RA_OF_ASC_NODE":241.8532,"ARG_OF_PERICENTER":106.812,"MEAN_ANOMALY":213.5879,"EPHEMERIS_TYPE":0,"CLASSIFICATION_TYPE":"U","NORAD_CAT_ID":67862,"ELEMENT_SET_NO":999,"REV_AT_EPOCH":288,"BSTAR":0.00013161514,"MEAN_MOTION_DOT":0.0002536,"MEAN_MOTION_DDOT":0},{"OBJECT_NAME":"STARLINK-36835","OBJECT_ID":"2026-034P","EPOCH":"2026-03-03T14:00:03.000384","MEAN_MOTION":15.80902502,"ECCENTRICITY":9.417e-5,"INCLINATION":53.1588,"RA_OF_ASC_NODE":241.8434,"ARG_OF_PERICENTER":60.5275,"MEAN_ANOMALY":264.1445,"EPHEMERIS_TYPE":0,"CLASSIFICATION_TYPE":"U","NORAD_CAT_ID":67863,"ELEMENT_SET_NO":999,"REV_AT_EPOCH":288,"BSTAR":-0.00014155359,"MEAN_MOTION_DOT":-0.00028582,"MEAN_MOTION_DDOT":0},{"OBJECT_NAME":"STARLINK-36831","OBJECT_ID":"2026-034Q","EPOCH":"2026-03-03T14:00:03.000384","MEAN_MOTION":15.80918533,"ECCENTRICITY":9.831e-5,"INCLINATION":53.1587,"RA_OF_ASC_NODE":241.8348,"ARG_OF_PERICENTER":78.5871,"MEAN_ANOMALY":250.3576,"EPHEMERIS_TYPE":0,"CLASSIFICATION_TYPE":"U","NORAD_CAT_ID":67864,"ELEMENT_SET_NO":999,"REV_AT_EPOCH":288,"BSTAR":-0.00031813064,"MEAN_MOTION_DOT":-0.00063161,"MEAN_MOTION_DDOT":0},{"OBJECT_NAME":"STARLINK-36738","OBJECT_ID":"2026-034R","EPOCH":"2026-03-03T14:00:03.000384","MEAN_MOTION":15.80909067,"ECCENTRICITY":0.00012146,"INCLINATION":53.1585,"RA_OF_ASC_NODE":241.8257,"ARG_OF_PERICENTER":46.5848,"MEAN_ANOMALY":286.643,"EPHEMERIS_TYPE":0,"CLASSIFICATION_TYPE":"U","NORAD_CAT_ID":67865,"ELEMENT_SET_NO":999,"REV_AT_EPOCH":288,"BSTAR":-0.00030573848,"MEAN_MOTION_DOT":-0.0006072,"MEAN_MOTION_DDOT":0}]
