STARLINK-36840          
1 67850U 26034A   26062.58336806  .00087283  00000+0  44180-3 0  9993
2 67850  53.1586 241.9607 0000972  65.7163 203.4246 15.80848344  2931
STARLINK-36348          
1 67851U 26034B   26062.58336806  .00072631  00000+0  36870-3 0  9992
2 67851  53.1587 241.9511 0001238  63.5919 209.8172 15.80856764  2885
STARLINK-36276          
1 67852U 26034C   26062.58336806  .00038813  00000+0  19944-3 0  9990
2 67852  53.1585 241.9422 0001442  51.8863 225.8171 15.80857532  2881
STARLINK-36785          
1 67853U 26034D   26062.58336806  .00021176  00000+0  11053-3 0  9998
2 67853  53.1587 241.9334 0001440  56.4625 225.4891 15.80879955  2889
STARLINK-36608          
1 67854U 26034E   26062.58336806  .00028761  00000+0  14873-3 0  9999
2 67854  53.1587 241.9246 0001408  53.2400 232.9810 15.80879471  2889
STARLINK-36838          
1 67855U 26034F   26062.58336806  .00037278  00000+0  19163-3 0  9990
2 67855  53.1587 241.9151 0001329  45.1196 245.3863 15.80868060  2887
STARLINK-36843          
1 67856U 26034G   26062.58336806  .00064528  00000+0  32820-3 0  9994
2 67856  53.1586 241.8980 0001043  88.5444 210.4934 15.80861490  2888
STARLINK-36828          
1 67857U 26034H   26062.58336806  .00104224  00000+0  52610-3 0  9992
2 67857  53.1586 241.9072 0001018  63.7871 230.9880 15.80837470  2881
STARLINK-36837          
1 67858U 26034J   26062.58336806  .00014732  00000+0  78025-4 0  9996
2 67858  53.1588 241.8882 0001198  81.0814 222.2326 15.80880919  2886
STARLINK-36393          
1 67859U 26034K   26062.58336806  .00074013  00000+0  37577-3 0  9991
2 67859  53.1587 241.8796 0000710  65.2228 242.3834 15.80846612  2881
STARLINK-35873          
1 67860U 26034L   26062.58336806  .00086298  00000+0  43702-3 0  9998
2 67860  53.1587 241.8709 0000765  72.2276 239.6370 15.80842249  3021
STARLINK-36325          
1 67861U 26034M   26062.58336806  .00006071  00000+0  34262-4 0  9992
2 67861  53.1589 241.8618 0001233  89.9444 226.1957 15.80882855  2888
STARLINK-36332          
1 67862U 26034N   26062.58336806  .00025360  00000+0  13162-3 0  9990
2 67862  53.1585 241.8532 0000976 106.8120 213.5879 15.80878131  2888
STARLINK-36835          
1 67863U 26034P   26062.58336806 -.00028582  00000+0 -14155-3 0  9995
2 67863  53.1588 241.8434 0000941  60.5275 264.1445 15.80902502  2883
STARLINK-36831          
1 67864U 26034Q   26062.58336806 -.00063161  00000+0 -31813-3 0  9998
2 67864  53.1587 241.8348 0000983  78.5871 250.3576 15.80918533  2887
STARLINK-36738          
1 67865U 26034R   26062.58336806 -.00060720  00000+0 -30574-3 0  9990
2 67865  53.1585 241.8257 0001214  46.5848 286.6430 15.80909067  2885
